CCSDS_OMM_VERS = 2.0
CREATION_DATE  = 
ORIGINATOR     = 

OBJECT_NAME    = SL-16 R/B
OBJECT_ID      = 1993-016B
CENTER_NAME    = EARTH
REF_FRAME      = TEME
TIME_SYSTEM    = UTC
MEAN_ELEMENT_THEORY = SGP/SGP4

EPOCH          = 2025-12-10T12:20:20.758560
MEAN_MOTION    = 14.15287115
ECCENTRICITY   = .0007839
INCLINATION    = 71.0086
RA_OF_ASC_NODE = 42.4785
ARG_OF_PERICENTER = 101.7988
MEAN_ANOMALY   = 258.4015

EPHEMERIS_TYPE = 0
CLASSIFICATION_TYPE = U
NORAD_CAT_ID   = 22566
ELEMENT_SET_NO = 999
REV_AT_EPOCH   = 68955
BSTAR          = -.4306495E-4
MEAN_MOTION_DOT = -.131E-5
MEAN_MOTION_DDOT = 0

CCSDS_OMM_VERS = 2.0
CREATION_DATE  = 
ORIGINATOR     = 

OBJECT_NAME    = COSMOS 2242
OBJECT_ID      = 1993-024A
CENTER_NAME    = EARTH
REF_FRAME      = TEME
TIME_SYSTEM    = UTC
MEAN_ELEMENT_THEORY = SGP/SGP4

EPOCH          = 2025-12-10T18:18:47.852640
MEAN_MOTION    = 14.96093070
ECCENTRICITY   = .0014871
INCLINATION    = 82.5191
RA_OF_ASC_NODE = 351.7340
ARG_OF_PERICENTER = 241.4883
MEAN_ANOMALY   = 118.4842

EPHEMERIS_TYPE = 0
CLASSIFICATION_TYPE = U
NORAD_CAT_ID   = 22626
ELEMENT_SET_NO = 999
REV_AT_EPOCH   = 76709
BSTAR          = .30944E-3
MEAN_MOTION_DOT = .351E-4
MEAN_MOTION_DDOT = 0

CCSDS_OMM_VERS = 2.0
CREATION_DATE  = 
ORIGINATOR     = 

OBJECT_NAME    = SL-16 R/B
OBJECT_ID      = 1993-059B
CENTER_NAME    = EARTH
REF_FRAME      = TEME
TIME_SYSTEM    = UTC
MEAN_ELEMENT_THEORY = SGP/SGP4

EPOCH          = 2025-12-10T13:03:28.766880
MEAN_MOTION    = 14.17213665
ECCENTRICITY   = .0017883
INCLINATION    = 70.9895
RA_OF_ASC_NODE = 199.1165
ARG_OF_PERICENTER = 338.7406
MEAN_ANOMALY   = 21.2972

EPHEMERIS_TYPE = 0
CLASSIFICATION_TYPE = U
NORAD_CAT_ID   = 22803
ELEMENT_SET_NO = 999
REV_AT_EPOCH   = 66690
BSTAR          = .14733E-4
MEAN_MOTION_DOT = -.18E-6
MEAN_MOTION_DDOT = 0

CCSDS_OMM_VERS = 2.0
CREATION_DATE  = 
ORIGINATOR     = 

OBJECT_NAME    = ARIANE 40 R/B
OBJECT_ID      = 1993-061H
CENTER_NAME    = EARTH
REF_FRAME      = TEME
TIME_SYSTEM    = UTC
MEAN_ELEMENT_THEORY = SGP/SGP4

EPOCH          = 2025-12-10T15:54:36.916128
MEAN_MOTION    = 14.32799431
ECCENTRICITY   = .0010753
INCLINATION    = 98.5079
RA_OF_ASC_NODE = 50.2307
ARG_OF_PERICENTER = 182.0753
MEAN_ANOMALY   = 178.0388

EPHEMERIS_TYPE = 0
CLASSIFICATION_TYPE = U
NORAD_CAT_ID   = 22830
ELEMENT_SET_NO = 999
REV_AT_EPOCH   = 68135
BSTAR          = .18109E-3
MEAN_MOTION_DOT = .451E-5
MEAN_MOTION_DDOT = 0

CCSDS_OMM_VERS = 2.0
CREATION_DATE  = 
ORIGINATOR     = 

OBJECT_NAME    = COSMOS 2278
OBJECT_ID      = 1994-023A
CENTER_NAME    = EARTH
REF_FRAME      = TEME
TIME_SYSTEM    = UTC
MEAN_ELEMENT_THEORY = SGP/SGP4

EPOCH          = 2025-12-10T11:38:12.927840
MEAN_MOTION    = 14.14350875
ECCENTRICITY   = .00084349
INCLINATION    = 71.0544
RA_OF_ASC_NODE = 1.7288
ARG_OF_PERICENTER = 183.3840
MEAN_ANOMALY   = 176.7227

EPHEMERIS_TYPE = 0
CLASSIFICATION_TYPE = U
NORAD_CAT_ID   = 23087
ELEMENT_SET_NO = 999
REV_AT_EPOCH   = 63219
BSTAR          = -.52233199E-4
MEAN_MOTION_DOT = -.147E-5
MEAN_MOTION_DDOT = 0

CCSDS_OMM_VERS = 2.0
CREATION_DATE  = 
ORIGINATOR     = 

OBJECT_NAME    = SL-16 R/B
OBJECT_ID      = 1994-023B
CENTER_NAME    = EARTH
REF_FRAME      = TEME
TIME_SYSTEM    = UTC
MEAN_ELEMENT_THEORY = SGP/SGP4

EPOCH          = 2025-12-10T17:07:20.574912
MEAN_MOTION    = 14.15002568
ECCENTRICITY   = .0001258
INCLINATION    = 71.0009
RA_OF_ASC_NODE = 257.7409
ARG_OF_PERICENTER = 34.3201
MEAN_ANOMALY   = 325.8003

EPHEMERIS_TYPE = 0
CLASSIFICATION_TYPE = U
NORAD_CAT_ID   = 23088
ELEMENT_SET_NO = 999
REV_AT_EPOCH   = 63350
BSTAR          = .91477E-4
MEAN_MOTION_DOT = .129E-5
MEAN_MOTION_DDOT = 0

CCSDS_OMM_VERS = 2.0
CREATION_DATE  = 
ORIGINATOR     = 

OBJECT_NAME    = SL-16 R/B
OBJECT_ID      = 1994-074B
CENTER_NAME    = EARTH
REF_FRAME      = TEME
TIME_SYSTEM    = UTC
MEAN_ELEMENT_THEORY = SGP/SGP4

EPOCH          = 2025-12-10T12:43:36.562656
MEAN_MOTION    = 14.79285799
ECCENTRICITY   = .00074059
INCLINATION    = 97.7204
RA_OF_ASC_NODE = 13.9226
ARG_OF_PERICENTER = 142.0134
MEAN_ANOMALY   = 25.3406

EPHEMERIS_TYPE = 0
CLASSIFICATION_TYPE = U
NORAD_CAT_ID   = 23343
ELEMENT_SET_NO = 999
REV_AT_EPOCH   = 67406
BSTAR          = .11509585E-3
MEAN_MOTION_DOT = .807E-5
MEAN_MOTION_DDOT = 0

CCSDS_OMM_VERS = 2.0
CREATION_DATE  = 
ORIGINATOR     = 

OBJECT_NAME    = SL-16 R/B
OBJECT_ID      = 1994-077B
CENTER_NAME    = EARTH
REF_FRAME      = TEME
TIME_SYSTEM    = UTC
MEAN_ELEMENT_THEORY = SGP/SGP4

EPOCH          = 2025-12-10T19:12:34.941888
MEAN_MOTION    = 14.15548464
ECCENTRICITY   = .0004618
INCLINATION    = 70.9811
RA_OF_ASC_NODE = 179.4937
ARG_OF_PERICENTER = 285.4959
MEAN_ANOMALY   = 74.5653

EPHEMERIS_TYPE = 0
CLASSIFICATION_TYPE = U
NORAD_CAT_ID   = 23405
ELEMENT_SET_NO = 999
REV_AT_EPOCH   = 60365
BSTAR          = .17394E-3
MEAN_MOTION_DOT = .292E-5
MEAN_MOTION_DDOT = 0

CCSDS_OMM_VERS = 2.0
CREATION_DATE  = 
ORIGINATOR     = 

OBJECT_NAME    = ARIANE 40+ R/B
OBJECT_ID      = 1995-021B
CENTER_NAME    = EARTH
REF_FRAME      = TEME
TIME_SYSTEM    = UTC
MEAN_ELEMENT_THEORY = SGP/SGP4

EPOCH          = 2025-12-10T16:06:21.165984
MEAN_MOTION    = 14.39693164
ECCENTRICITY   = .0007567
INCLINATION    = 98.4653
RA_OF_ASC_NODE = 52.2848
ARG_OF_PERICENTER = 55.4934
MEAN_ANOMALY   = 106.5246

EPHEMERIS_TYPE = 0
CLASSIFICATION_TYPE = U
NORAD_CAT_ID   = 23561
ELEMENT_SET_NO = 999
REV_AT_EPOCH   = 60643
BSTAR          = .18391E-3
MEAN_MOTION_DOT = .532E-5
MEAN_MOTION_DDOT = 0

CCSDS_OMM_VERS = 2.0
CREATION_DATE  = 
ORIGINATOR     = 

OBJECT_NAME    = SL-16 R/B
OBJECT_ID      = 1995-058B
CENTER_NAME    = EARTH
REF_FRAME      = TEME
TIME_SYSTEM    = UTC
MEAN_ELEMENT_THEORY = SGP/SGP4

EPOCH          = 2025-12-10T19:16:18.793056
MEAN_MOTION    = 14.15483518
ECCENTRICITY   = .0014963
INCLINATION    = 71.0225
RA_OF_ASC_NODE = 6.8707
ARG_OF_PERICENTER = 257.7684
MEAN_ANOMALY   = 102.1763

EPHEMERIS_TYPE = 0
CLASSIFICATION_TYPE = U
NORAD_CAT_ID   = 23705
ELEMENT_SET_NO = 999
REV_AT_EPOCH   = 55527
BSTAR          = .99505E-4
MEAN_MOTION_DOT = .147E-5
MEAN_MOTION_DDOT = 0

CCSDS_OMM_VERS = 2.0
CREATION_DATE  = 
ORIGINATOR     = 

OBJECT_NAME    = SL-16 R/B
OBJECT_ID      = 1996-051B
CENTER_NAME    = EARTH
REF_FRAME      = TEME
TIME_SYSTEM    = UTC
MEAN_ELEMENT_THEORY = SGP/SGP4

EPOCH          = 2025-12-10T18:55:59.924064
MEAN_MOTION    = 14.12396355
ECCENTRICITY   = .0019364
INCLINATION    = 70.7594
RA_OF_ASC_NODE = 3.4135
ARG_OF_PERICENTER = 263.7302
MEAN_ANOMALY   = 96.1612

EPHEMERIS_TYPE = 0
CLASSIFICATION_TYPE = U
NORAD_CAT_ID   = 24298
ELEMENT_SET_NO = 999
REV_AT_EPOCH   = 50909
BSTAR          = .42547E-4
MEAN_MOTION_DOT = .29E-6
MEAN_MOTION_DDOT = 0

CCSDS_OMM_VERS = 2.0
CREATION_DATE  = 
ORIGINATOR     = 

OBJECT_NAME    = ORBVIEW 2 (SEASTAR)
OBJECT_ID      = 1997-037A
CENTER_NAME    = EARTH
REF_FRAME      = TEME
TIME_SYSTEM    = UTC
MEAN_ELEMENT_THEORY = SGP/SGP4

EPOCH          = 2025-12-10T16:25:59.524608
MEAN_MOTION    = 14.35414859
ECCENTRICITY   = .0001748
INCLINATION    = 98.8456
RA_OF_ASC_NODE = 141.7075
ARG_OF_PERICENTER = 348.8403
MEAN_ANOMALY   = 11.2742

EPHEMERIS_TYPE = 0
CLASSIFICATION_TYPE = U
NORAD_CAT_ID   = 24883
ELEMENT_SET_NO = 999
REV_AT_EPOCH   = 49570
BSTAR          = .20694E-3
MEAN_MOTION_DOT = .548E-5
MEAN_MOTION_DDOT = 0

