SL-16 R/B               
1 22566U 93016B   25344.51412915 -.00000131  00000+0 -43065-4 0  9994
2 22566  71.0086  42.4785 0007839 101.7988 258.4015 14.15287115689559
COSMOS 2242             
1 22626U 93024A   25344.76305385  .00003510  00000+0  30944-3 0  9992
2 22626  82.5191 351.7340 0014871 241.4883 118.4842 14.96093070767096
SL-16 R/B               
1 22803U 93059B   25344.54408295 -.00000018  00000+0  14733-4 0  9997
2 22803  70.9895 199.1165 0017883 338.7406  21.2972 14.17213665666901
ARIANE 40 R/B           
1 22830U 93061H   25344.66292727  .00000451  00000+0  18109-3 0  9994
2 22830  98.5079  50.2307 0010753 182.0753 178.0388 14.32799431681355
COSMOS 2278             
1 23087U 94023A   25344.48487185 -.00000147  00000+0 -52233-4 0  9993
2 23087  71.0544   1.7288 0008434 183.3840 176.7227 14.14350875632196
SL-16 R/B               
1 23088U 94023B   25344.71343258  .00000129  00000+0  91477-4 0  9993
2 23088  71.0009 257.7409 0001258  34.3201 325.8003 14.15002568633503
SL-16 R/B               
1 23343U 94074B   25344.53028429  .00000807  00000+0  11510-3 0  9995
2 23343  97.7204  13.9226 0007405 142.0134  25.3406 14.79285799674064
SL-16 R/B               
1 23405U 94077B   25344.80040442  .00000292  00000+0  17394-3 0  9990
2 23405  70.9811 179.4937 0004618 285.4959  74.5653 14.15548464603655
ARIANE 40+ R/B          
1 23561U 95021B   25344.67107831  .00000532  00000+0  18391-3 0  9999
2 23561  98.4653  52.2848 0007567  55.4934 106.5246 14.39693164606437
SL-16 R/B               
1 23705U 95058B   25344.80299529  .00000147  00000+0  99505-4 0  9999
2 23705  71.0225   6.8707 0014963 257.7684 102.1763 14.15483518555270
SL-16 R/B               
1 24298U 96051B   25344.78888801  .00000029  00000+0  42547-4 0  9998
2 24298  70.7594   3.4135 0019364 263.7302  96.1612 14.12396355509098
ORBVIEW 2 (SEASTAR)     
1 24883U 97037A   25344.68471672  .00000548  00000+0  20694-3 0  9990
2 24883  98.8456 141.7075 0001748 348.8403  11.2742 14.35414859495708
